[{"OBJECT_NAME":"PRAETORIAN SDA_617","OBJECT_ID":"2025-203R","EPOCH":"2026-04-26T20:42:08.240832","MEAN_MOTION":13.8319712,"ECCENTRICITY":0.0007306,"INCLINATION":81.3043,"RA_OF_ASC_NODE":58.3482,"ARG_OF_PERICENTER":340.674,"MEAN_ANOMALY":19.4138,"EPHEMERIS_TYPE":0,"CLASSIFICATION_TYPE":"U","NORAD_CAT_ID":65580,"ELEMENT_SET_NO":999,"REV_AT_EPOCH":3159,"BSTAR":4.7059e-5,"MEAN_MOTION_DOT":6.3e-7,"MEAN_MOTION_DDOT":0},{"OBJECT_NAME":"PRAETORIAN SDA_618","OBJECT_ID":"2025-203S","EPOCH":"2026-04-26T19:43:03.743040","MEAN_MOTION":13.84767072,"ECCENTRICITY":0.0009601,"INCLINATION":81.3031,"RA_OF_ASC_NODE":58.1014,"ARG_OF_PERICENTER":339.183,"MEAN_ANOMALY":20.8934,"EPHEMERIS_TYPE":0,"CLASSIFICATION_TYPE":"U","NORAD_CAT_ID":65581,"ELEMENT_SET_NO":999,"REV_AT_EPOCH":3160,"BSTAR":0.00018141,"MEAN_MOTION_DOT":2.16e-6,"MEAN_MOTION_DDOT":0},{"OBJECT_NAME":"PRAETORIAN SDA_619","OBJECT_ID":"2025-203T","EPOCH":"2026-04-26T19:49:53.355936","MEAN_MOTION":13.83937039,"ECCENTRICITY":0.0007845,"INCLINATION":81.305,"RA_OF_ASC_NODE":58.3141,"ARG_OF_PERICENTER":338.7327,"MEAN_ANOMALY":21.3502,"EPHEMERIS_TYPE":0,"CLASSIFICATION_TYPE":"U","NORAD_CAT_ID":65582,"ELEMENT_SET_NO":999,"REV_AT_EPOCH":3222,"BSTAR":0.00019327,"MEAN_MOTION_DOT":2.26e-6,"MEAN_MOTION_DDOT":0},{"OBJECT_NAME":"PRAETORIAN SDA_620","OBJECT_ID":"2025-203U","EPOCH":"2026-04-26T20:15:17.432064","MEAN_MOTION":13.83612835,"ECCENTRICITY":0.0007373,"INCLINATION":81.3036,"RA_OF_ASC_NODE":58.3038,"ARG_OF_PERICENTER":336.5971,"MEAN_ANOMALY":23.4848,"EPHEMERIS_TYPE":0,"CLASSIFICATION_TYPE":"U","NORAD_CAT_ID":65583,"ELEMENT_SET_NO":999,"REV_AT_EPOCH":3159,"BSTAR":0.00026838,"MEAN_MOTION_DOT":3.08e-6,"MEAN_MOTION_DDOT":0},{"OBJECT_NAME":"PRAETORIAN SDA_621","OBJECT_ID":"2025-203V","EPOCH":"2026-04-26T19:47:15.109152","MEAN_MOTION":13.83792989,"ECCENTRICITY":0.0007109,"INCLINATION":81.3027,"RA_OF_ASC_NODE":58.2596,"ARG_OF_PERICENTER":334.5142,"MEAN_ANOMALY":25.5662,"EPHEMERIS_TYPE":0,"CLASSIFICATION_TYPE":"U","NORAD_CAT_ID":65584,"ELEMENT_SET_NO":999,"REV_AT_EPOCH":3159,"BSTAR":5.9745e-5,"MEAN_MOTION_DOT":7.8e-7,"MEAN_MOTION_DDOT":0},{"OBJECT_NAME":"PRAETORIAN SDA_601","OBJECT_ID":"2025-203W","EPOCH":"2026-04-26T20:20:53.979072","MEAN_MOTION":13.83423276,"ECCENTRICITY":0.0005589,"INCLINATION":81.3039,"RA_OF_ASC_NODE":58.483,"ARG_OF_PERICENTER":354.7532,"MEAN_ANOMALY":5.3564,"EPHEMERIS_TYPE":0,"CLASSIFICATION_TYPE":"U","NORAD_CAT_ID":65585,"ELEMENT_SET_NO":999,"REV_AT_EPOCH":3158,"BSTAR":0.00021875,"MEAN_MOTION_DOT":2.52e-6,"MEAN_MOTION_DDOT":0}]
