PRAETORIAN SDA_617      
1 65580U 25203R   26116.86259538  .00000063  00000+0  47059-4 0  9995
2 65580  81.3043  58.3482 0007306 340.6740  19.4138 13.83197120 31594
PRAETORIAN SDA_618      
1 65581U 25203S   26116.82157110  .00000216  00000+0  18141-3 0  9994
2 65581  81.3031  58.1014 0009601 339.1830  20.8934 13.84767072 31606
PRAETORIAN SDA_619      
1 65582U 25203T   26116.82631199  .00000226  00000+0  19327-3 0  9997
2 65582  81.3050  58.3141 0007845 338.7327  21.3502 13.83937039 32222
PRAETORIAN SDA_620      
1 65583U 25203U   26116.84395176  .00000308  00000+0  26838-3 0  9998
2 65583  81.3036  58.3038 0007373 336.5971  23.4848 13.83612835 31598
PRAETORIAN SDA_621      
1 65584U 25203V   26116.82448043  .00000078  00000+0  59745-4 0  9997
2 65584  81.3027  58.2596 0007109 334.5142  25.5662 13.83792989 31598
PRAETORIAN SDA_601      
1 65585U 25203W   26116.84784698  .00000252  00000+0  21875-3 0  9995
2 65585  81.3039  58.4830 0005589 354.7532   5.3564 13.83423276 31588
